start=new Date('2022-05-06T00:00:00.000Z').valueOf();
sats=[{"DECAY_DATE":null,"OBJECT_TYPE":"PAYLOAD","PERIOD":"95.436","ARG_OF_PERICENTER":"34.0698","COUNTRY_CODE":"US","PERIAPSIS":"537.955","RCS_SIZE":"LARGE","OBJECT_NAME":"STARLINK-3141","REF_FRAME":"TEME","INCLINATION":"53.2189","OBJECT_ID":"2021-104BD","MEAN_MOTION_DOT":"-0.00059505","FILE":"3430750","LAUNCH_DATE":"2021-11-13","CLASSIFICATION_TYPE":"U","TLE_LINE2":"2 49459  53.2189  40.8948 0002475  34.0698  87.3595 15.08865696  3602","TIME_SYSTEM":"UTC","SITE":"AFETR","REV_AT_EPOCH":"360","RA_OF_ASC_NODE":"40.8948","MEAN_ANOMALY":"87.3595","MEAN_MOTION_DDOT":"0.0000000000000","EPOCH":"2022-05-05T22:00:00.999936","NORAD_CAT_ID":"49459","ECCENTRICITY":"0.00024750","MEAN_MOTION":"15.08865696","BSTAR":"-0.00374890000000","MEAN_ELEMENT_THEORY":"SGP4","CENTER_NAME":"EARTH","ELEMENT_SET_NO":"999","TLE_LINE1":"1 49459U 21104BD  22125.91667824 -.00059505  00000-0 -37489-2 0  9993","EPHEMERIS_TYPE":"0","APOAPSIS":"541.379","GP_ID":"202804375","SEMIMAJOR_AXIS":"6917.802"},{"MEAN_MOTION_DOT":"-0.00035820","FILE":"3430750","LAUNCH_DATE":"2021-11-13","OBJECT_ID":"2021-104BE","PERIAPSIS":"538.052","RCS_SIZE":"LARGE","COUNTRY_CODE":"US","ARG_OF_PERICENTER":"35.4639","INCLINATION":"53.2178","REF_FRAME":"TEME","OBJECT_NAME":"STARLINK-3140","DECAY_DATE":null,"PERIOD":"95.437","OBJECT_TYPE":"PAYLOAD","EPHEMERIS_TYPE":"0","APOAPSIS":"541.417","ELEMENT_SET_NO":"999","TLE_LINE1":"1 49460U 21104BE  22125.91667824 -.00035820  00000-0 -22434-2 0  9993","SEMIMAJOR_AXIS":"6917.869","GP_ID":"202805124","BSTAR":"-0.00224340000000","MEAN_MOTION":"15.08843617","CENTER_NAME":"EARTH","MEAN_ELEMENT_THEORY":"SGP4","MEAN_ANOMALY":"105.9591","RA_OF_ASC_NODE":"40.9140","REV_AT_EPOCH":"360","SITE":"AFETR","ECCENTRICITY":"0.00024320","NORAD_CAT_ID":"49460","EPOCH":"2022-05-05T22:00:00.999936","MEAN_MOTION_DDOT":"0.0000000000000","TIME_SYSTEM":"UTC","TLE_LINE2":"2 49460  53.2178  40.9140 0002432  35.4639 105.9591 15.08843617  3602","CLASSIFICATION_TYPE":"U"},{"TIME_SYSTEM":"UTC","CLASSIFICATION_TYPE":"U","TLE_LINE2":"2 49724  53.2131 330.9112 0002062  46.6674 194.5672 15.08832665 24728","NORAD_CAT_ID":"49724","ECCENTRICITY":"0.00020620","MEAN_MOTION_DDOT":"0.0000000000000","EPOCH":"2022-05-05T22:00:00.999936","MEAN_ANOMALY":"194.5672","REV_AT_EPOCH":"2472","SITE":"AFETR","RA_OF_ASC_NODE":"330.9112","CENTER_NAME":"EARTH","MEAN_ELEMENT_THEORY":"SGP4","BSTAR":"0.00087859000000","MEAN_MOTION":"15.08832665","GP_ID":"202780749","SEMIMAJOR_AXIS":"6917.903","TLE_LINE1":"1 49724U 21115A   22125.91667824  .00013720  00000-0  87859-3 0  9994","ELEMENT_SET_NO":"999","APOAPSIS":"541.194","EPHEMERIS_TYPE":"0","OBJECT_TYPE":"PAYLOAD","PERIOD":"95.438","DECAY_DATE":null,"REF_FRAME":"TEME","INCLINATION":"53.2131","OBJECT_NAME":"STARLINK-3219","COUNTRY_CODE":"US","RCS_SIZE":"LARGE","PERIAPSIS":"538.341","ARG_OF_PERICENTER":"46.6674","OBJECT_ID":"2021-115A","FILE":"3430683","LAUNCH_DATE":"2021-12-02","MEAN_MOTION_DOT":"0.00013720"},{"DECAY_DATE":null,"OBJECT_TYPE":"PAYLOAD","PERIOD":"95.439","PERIAPSIS":"538.092","RCS_SIZE":"LARGE","COUNTRY_CODE":"US","ARG_OF_PERICENTER":"30.9671","INCLINATION":"53.2185","REF_FRAME":"TEME","OBJECT_NAME":"STARLINK-3218","OBJECT_ID":"2021-115B","MEAN_MOTION_DOT":"0.00020862","FILE":"3430750","LAUNCH_DATE":"2021-12-02","TIME_SYSTEM":"UTC","CLASSIFICATION_TYPE":"U","TLE_LINE2":"2 49725  53.2185 330.8970 0002470  30.9671  30.2571 15.08821952  3576","MEAN_ANOMALY":"30.2571","RA_OF_ASC_NODE":"330.8970","SITE":"AFETR","REV_AT_EPOCH":"357","NORAD_CAT_ID":"49725","ECCENTRICITY":"0.00024700","EPOCH":"2022-05-05T22:00:00.999936","MEAN_MOTION_DDOT":"0.0000000000000","BSTAR":"0.00132560000000","MEAN_MOTION":"15.08821952","CENTER_NAME":"EARTH","MEAN_ELEMENT_THEORY":"SGP4","EPHEMERIS_TYPE":"0","APOAPSIS":"541.509","TLE_LINE1":"1 49725U 21115B   22125.91667824  .00020862  00000-0  13256-2 0  9999","ELEMENT_SET_NO":"999","SEMIMAJOR_AXIS":"6917.936","GP_ID":"202805397"},{"EPOCH":"2022-05-05T22:00:00.999936","MEAN_MOTION_DDOT":"0.0000000000000","NORAD_CAT_ID":"49726","ECCENTRICITY":"0.00020010","RA_OF_ASC_NODE":"340.9059","REV_AT_EPOCH":"356","SITE":"AFETR","MEAN_ANOMALY":"228.0686","CLASSIFICATION_TYPE":"U","TLE_LINE2":"2 49726  53.2183 340.9059 0002001  43.3615 228.0686 15.08822594  3567","TIME_SYSTEM":"UTC","SEMIMAJOR_AXIS":"6917.934","GP_ID":"202806137","APOAPSIS":"541.183","EPHEMERIS_TYPE":"0","TLE_LINE1":"1 49726U 21115C   22125.91667824  .00006753  00000-0  44219-3 0  9997","ELEMENT_SET_NO":"999","MEAN_ELEMENT_THEORY":"SGP4","CENTER_NAME":"EARTH","MEAN_MOTION":"15.08822594","BSTAR":"0.00044219000000","OBJECT_NAME":"STARLINK-3237","INCLINATION":"53.2183","REF_FRAME":"TEME","ARG_OF_PERICENTER":"43.3615","PERIAPSIS":"538.414","RCS_SIZE":"LARGE","COUNTRY_CODE":"US","OBJECT_TYPE":"PAYLOAD","PERIOD":"95.439","DECAY_DATE":null,"FILE":"3430750","LAUNCH_DATE":"2021-12-02","MEAN_MOTION_DOT":"0.00006753","OBJECT_ID":"2021-115C"},{"OBJECT_TYPE":"PAYLOAD","PERIOD":"95.438","DECAY_DATE":null,"OBJECT_NAME":"STARLINK-3242","REF_FRAME":"TEME","INCLINATION":"53.2177","ARG_OF_PERICENTER":"46.9396","COUNTRY_CODE":"US","PERIAPSIS":"538.273","RCS_SIZE":"LARGE","OBJECT_ID":"2021-115D","FILE":"3430450","LAUNCH_DATE":"2021-12-02","MEAN_MOTION_DOT":"0.00013449","CLASSIFICATION_TYPE":"U","TLE_LINE2":"2 49727  53.2177 340.9107 0002157  46.9396 204.4825 15.08833660 24586","TIME_SYSTEM":"UTC","MEAN_MOTION_DDOT":"0.0000000000000","EPOCH":"2022-05-05T22:00:00.999936","NORAD_CAT_ID":"49727","ECCENTRICITY":"0.00021570","REV_AT_EPOCH":"2458","SITE":"AFETR","RA_OF_ASC_NODE":"340.9107","MEAN_ANOMALY":"204.4825","MEAN_ELEMENT_THEORY":"SGP4","CENTER_NAME":"EARTH","MEAN_MOTION":"15.08833660","BSTAR":"0.00086165000000","GP_ID":"202775042","SEMIMAJOR_AXIS":"6917.900","TLE_LINE1":"1 49727U 21115D   22125.91667824  .00013449  00000-0  86165-3 0  9994","ELEMENT_SET_NO":"999","APOAPSIS":"541.257","EPHEMERIS_TYPE":"0"},{"INCLINATION":"53.2160","REF_FRAME":"TEME","OBJECT_NAME":"STARLINK-3240","PERIAPSIS":"538.642","RCS_SIZE":"LARGE","COUNTRY_CODE":"US","ARG_OF_PERICENTER":"52.6534","OBJECT_TYPE":"PAYLOAD","PERIOD":"95.439","DECAY_DATE":null,"FILE":"3430750","LAUNCH_DATE":"2021-12-02","MEAN_MOTION_DOT":"0.00014569","OBJECT_ID":"2021-115E","ECCENTRICITY":"0.00016680","NORAD_CAT_ID":"49728","EPOCH":"2022-05-05T22:00:00.999936","MEAN_MOTION_DDOT":"0.0000000000000","MEAN_ANOMALY":"178.7773","RA_OF_ASC_NODE":"340.9143","REV_AT_EPOCH":"356","SITE":"AFETR","TIME_SYSTEM":"UTC","TLE_LINE2":"2 49728  53.2160 340.9143 0001668  52.6534 178.7773 15.08823610  3567","CLASSIFICATION_TYPE":"U","SEMIMAJOR_AXIS":"6917.930","GP_ID":"202804646","EPHEMERIS_TYPE":"0","APOAPSIS":"540.949","ELEMENT_SET_NO":"999","TLE_LINE1":"1 49728U 21115E   22125.91667824  .00014569  00000-0  93197-3 0  9992","CENTER_NAME":"EARTH","MEAN_ELEMENT_THEORY":"SGP4","BSTAR":"0.00093197000000","MEAN_MOTION":"15.08823610"},{"CENTER_NAME":"EARTH","MEAN_ELEMENT_THEORY":"SGP4","BSTAR":"-0.00200980000000","MEAN_MOTION":"15.08857930","GP_ID":"202780751","SEMIMAJOR_AXIS":"6917.826","APOAPSIS":"541.415","EPHEMERIS_TYPE":"0","ELEMENT_SET_NO":"999","TLE_LINE1":"1 49729U 21115F   22125.91667824 -.00032149  00000-0 -20098-2 0  9998","TIME_SYSTEM":"UTC","CLASSIFICATION_TYPE":"U","TLE_LINE2":"2 49729  53.2173 340.9118 0002492  37.0914 174.3263 15.08857930 24582","ECCENTRICITY":"0.00024920","NORAD_CAT_ID":"49729","EPOCH":"2022-05-05T22:00:00.999936","MEAN_MOTION_DDOT":"0.0000000000000","MEAN_ANOMALY":"174.3263","RA_OF_ASC_NODE":"340.9118","SITE":"AFETR","REV_AT_EPOCH":"2458","OBJECT_ID":"2021-115F","FILE":"3430683","MEAN_MOTION_DOT":"-0.00032149","LAUNCH_DATE":"2021-12-02","PERIOD":"95.436","OBJECT_TYPE":"PAYLOAD","DECAY_DATE":null,"INCLINATION":"53.2173","REF_FRAME":"TEME","OBJECT_NAME":"STARLINK-3251","PERIAPSIS":"537.967","RCS_SIZE":"LARGE","COUNTRY_CODE":"US","ARG_OF_PERICENTER":"37.0914"},{"OBJECT_NAME":"STARLINK-3249","REF_FRAME":"TEME","INCLINATION":"53.2163","ARG_OF_PERICENTER":"40.5659","COUNTRY_CODE":"US","PERIAPSIS":"538.271","RCS_SIZE":"LARGE","PERIOD":"95.439","OBJECT_TYPE":"PAYLOAD","DECAY_DATE":null,"FILE":"3430683","MEAN_MOTION_DOT":"0.00009028","LAUNCH_DATE":"2021-12-02","OBJECT_ID":"2021-115G","MEAN_MOTION_DDOT":"0.0000000000000","EPOCH":"2022-05-05T22:00:00.999936","NORAD_CAT_ID":"49730","ECCENTRICITY":"0.00022340","REV_AT_EPOCH":"2458","SITE":"AFETR","RA_OF_ASC_NODE":"340.9065","MEAN_ANOMALY":"130.8802","TLE_LINE2":"2 49730  53.2163 340.9065 0002234  40.5659 130.8802 15.08816729 24580","CLASSIFICATION_TYPE":"U","TIME_SYSTEM":"UTC","SEMIMAJOR_AXIS":"6917.952","GP_ID":"202780244","ELEMENT_SET_NO":"999","TLE_LINE1":"1 49730U 21115G   22125.91667824  .00009028  00000-0  58494-3 0  9990","EPHEMERIS_TYPE":"0","APOAPSIS":"541.362","MEAN_ELEMENT_THEORY":"SGP4","CENTER_NAME":"EARTH","MEAN_MOTION":"15.08816729","BSTAR":"0.00058494000000"},{"OBJECT_TYPE":"PAYLOAD","PERIOD":"95.438","DECAY_DATE":null,"INCLINATION":"53.2160","REF_FRAME":"TEME","OBJECT_NAME":"STARLINK-3228","PERIAPSIS":"538.307","RCS_SIZE":"LARGE","COUNTRY_CODE":"US","ARG_OF_PERICENTER":"38.2440","OBJECT_ID":"2021-115H","FILE":"3430611","MEAN_MOTION_DOT":"-0.00005815","LAUNCH_DATE":"2021-12-02","TIME_SYSTEM":"UTC","TLE_LINE2":"2 49731  53.2160 340.9153 0002140  38.2440 153.2043 15.08826380 24584","CLASSIFICATION_TYPE":"U","NORAD_CAT_ID":"49731","ECCENTRICITY":"0.00021400","EPOCH":"2022-05-05T22:00:00.999936","MEAN_MOTION_DDOT":"0.0000000000000","MEAN_ANOMALY":"153.2043","RA_OF_ASC_NODE":"340.9153","REV_AT_EPOCH":"2458","SITE":"AFETR","CENTER_NAME":"EARTH","MEAN_ELEMENT_THEORY":"SGP4","BSTAR":"-0.00034763000000","MEAN_MOTION":"15.08826380","GP_ID":"202777262","SEMIMAJOR_AXIS":"6917.922","APOAPSIS":"541.267","EPHEMERIS_TYPE":"0","TLE_LINE1":"1 49731U 21115H   22125.91667824 -.00005815  00000-0 -34763-3 0  9996","ELEMENT_SET_NO":"999"}];
